GLOBALSTAR M068         
1 32266U 07048D   25001.53114626 -.00000095  00000+0  49685-4 0  9994
2 32266  51.9888  90.2752 0001701 127.7701 246.2444 12.62812647796501
GLOBALSTAR M079         
1 37188U 10054A   25001.51899606 -.00000050  00000+0  29776-3 0  9998
2 37188  52.0049 287.1539 0000551  37.1490 134.0721 12.62269214655402
GLOBALSTAR M074         
1 37189U 10054B   25001.54516390 -.00000045  00000+0  32548-3 0  9993
2 37189  52.0025 286.4213 0000905  55.3017 115.4603 12.62261030656016
GLOBALSTAR M076         
1 37190U 10054C   25001.49272192 -.00000061  00000+0  24096-3 0  9995
2 37190  52.0037 286.7375 0000867  35.1540 136.8705 12.62275542655727
GLOBALSTAR M077         
1 37191U 10054D   25001.40047265 -.00000057  00000+0  26145-3 0  9990
2 37191  52.0058 243.8282 0000990  69.5135 102.2878 12.62269349656086
GLOBALSTAR M075         
1 37192U 10054E   25001.34316806 -.00000066  00000+0  21147-3 0  9991
2 37192  51.9967 329.5405 0000523  57.6975  95.3173 12.62270964654774
GLOBALSTAR M073         
1 37193U 10054F   25001.42632640 -.00000055  00000+0  27017-3 0  9998
2 37193  52.0045 242.9798 0000937  62.8854 107.9797 12.62261914656779
GLOBALSTAR M083         
1 37739U 11033A   25001.57463024 -.00000104  00000+0  70391-6 0  9997
2 37739  51.9828 191.4860 0000912  95.8525 329.4420 12.62270201625818
GLOBALSTAR M088         
1 37740U 11033B   25001.53685148 -.00000090  00000+0  74746-4 0  9998
2 37740  51.9734  97.2313 0000713 130.8925 243.0630 12.62266755621353
GLOBALSTAR M091         
1 37741U 11033C   25001.58005560 -.00000075  00000+0  15973-3 0  9997
2 37741  52.0008  60.3585 0000570 160.0969 349.4436 12.62272251622147
GLOBALSTAR M085         
1 37742U 11033D   25001.48972817 -.00000083  00000+0  11786-3 0  9992
2 37742  51.9886  11.8186 0000189 151.6123   7.9554 12.62263435622648
GLOBALSTAR M081         
1 37743U 11033E   25001.59424670 -.00000071  00000+0  18433-3 0  9997
2 37743  51.9978  14.1832 0000080 331.4072 184.1519 12.62274875622803
GLOBALSTAR M089         
1 37744U 11033F   25001.47590196 -.00000072  00000+0  17608-3 0  9996
2 37744  51.9951 328.8050 0000693  39.2433 117.3058 12.62274389623634
GLOBALSTAR M084         
1 38040U 11080A   25001.77429384 -.00000093  00000+0  57662-4 0  9999
2 38040  51.9979 195.0948 0001328  78.8282 294.4734 12.62273219601939
GLOBALSTAR M080         
1 38041U 11080B   25001.51179269 -.00000096  00000+0  41737-4 0  9995
2 38041  52.0032 197.4453 0001276  64.0579 314.0777 12.62260164601747
GLOBALSTAR M082         
1 38042U 11080C   25001.44924565 -.00000118  00000+0 -81630-4 0  9997
2 38042  52.0055 153.0609 0001219 127.0948 267.8724 12.62271771602442
GLOBALSTAR M092         
1 38043U 11080D   25001.37372265 -.00000062  00000+0  23251-3 0  9995
2 38043  52.0069 243.6609 0001070  73.8468  97.7731 12.62271395600880
GLOBALSTAR M090         
1 38044U 11080E   25001.56777337 -.00000113  00000+0 -53391-4 0  9993
2 38044  51.9867 146.7229 0000989 116.8142 336.9497 12.62265427602575
GLOBALSTAR M086         
1 38045U 11080F   25001.58511448 -.00000108  00000+0 -25783-4 0  9993
2 38045  51.9880 147.2079 0000441  45.1345   7.9227 12.62265347602524
GLOBALSTAR M097         
1 39072U 13005A   25001.60020847 -.00000087  00000+0  92478-4 0  9994
2 39072  52.0059  61.5420 0000358 146.0799 214.0091 12.62268322549777
GLOBALSTAR M093         
1 39073U 13005B   25001.49395425 -.00000081  00000+0  12699-3 0  9999
2 39073  51.9823  55.4305 0000325 153.9776 206.1107 12.62260537549719
GLOBALSTAR M094         
1 39074U 13005C   25001.41521990 -.00000089  00000+0  84699-4 0  9998
2 39074  51.9979 329.8890 0000196  11.0728 349.0143 12.62266557551310
GLOBALSTAR M096         
1 39075U 13005D   25001.50761757 -.00000084  00000+0  10890-3 0  9992
2 39075  52.0092  17.9918 0000221 185.2086 174.8779 12.62266293550242
GLOBALSTAR M078         
1 39076U 13005E   25001.71818546 -.00000199  00000+0 -53275-3 0  9997
2 39076  51.9877 102.0824 0001451 149.6072 210.4879 12.62266995549109
GLOBALSTAR M095         
1 39077U 13005F   25001.58660678 -.00000081  00000+0  12551-3 0  9995
2 39077  51.9799  99.7653 0001019 157.1679 202.9233 12.62269977548733
GLOBALSTAR M087         
1 52888U 22064A   25001.80480672 -.00000057  00000+0  21401-3 0  9991
2 52888  51.9769 242.4362 0021452  13.0095 347.1333 12.88918606123992
